OPS 7218 (TRANSIT 16)   
1 02807U 67048A   26061.82907607  .00000128  00000+0  18272-3 0  9999
2 02807  89.6810 351.3885 0018260 242.9502 177.9136 13.50742256893576
OPS 4947 (TRANSIT 17)   
1 02965U 67092A   26061.80206525  .00000164  00000+0  22563-3 0  9990
2 02965  89.2554  18.3348 0048070   5.9572  54.7732 13.53475855881800
OPS 7034 (TRANSIT 18)   
1 03133U 68012A   26061.66312026  .00000154  00000+0  22032-3 0  9999
2 03133  90.0217 273.8542 0072270 299.8543 130.8155 13.51587481579984
NNSS 19 (TRANSIT 19)    
1 04507U 70067A   26061.52164083  .00000147  00000+0  19050-3 0  9999
2 04507  90.0048 234.5766 0173414  62.1588 299.7015 13.51336438732992
NNSS 20 (TRANSIT 20)    
1 06909U 73081A   26061.57668448  .00000236  00000+0  23102-3 0  9997
2 06909  89.8511 253.8401 0153976 198.1668 161.3958 13.71471886814553
TRANSAT                 
1 10457U 77106A   26061.60996455  .00000091  00000+0  12878-3 0  9995
2 10457  89.6396  75.7319 0024335 327.0821 147.5083 13.48956840378208
NOVA 1                  
1 12458U 81044A   26061.66856602  .00000070  00000+0  14517-3 0  9998
2 12458  89.8427  90.2223 0012573 239.8521 245.0534 13.23286684162438
NOVA 3                  
1 15362U 84110A   26061.63266542  .00000105  00000+0  22810-3 0  9991
2 15362  90.1128  81.4393 0033391 108.2432  11.5514 13.23055707997552
OSCAR 30                
1 15935U 85066A   26061.66170968  .00000090  00000+0  14795-3 0  9993
2 15935  90.1555 101.1253 0166663 217.6648 266.6372 13.36093716975209
OSCAR 24                
1 15936U 85066B   26061.65308925  .00000104  00000+0  17437-3 0  9991
2 15936  90.1692  93.6861 0167506 224.2665 253.0113 13.35951465977109
POLAR BEAR              
1 17070U 86088A   26061.80389854  .00000116  00000+0  10878-3 0  9999
2 17070  89.6249 180.5892 0037729 237.1763 237.5864 13.75268616970797
OSCAR 27                
1 18361U 87080A   26061.59762983  .00000110  00000+0  16892-3 0  9996
2 18361  90.3647  82.2223 0103613 357.0336   3.0185 13.44923115886305
OSCAR 29                
1 18362U 87080B   26061.64702566  .00000093  00000+0  14076-3 0  9996
2 18362  90.3657  82.6894 0106013  20.0617  99.3409 13.44463285885832
OSCAR 23                
1 19070U 88033A   26061.78034145  .00000093  00000+0  17491-3 0  9992
2 19070  90.3280  18.8843 0188265 318.3345 106.7459 13.27802463833158
OSCAR 32                
1 19071U 88033B   26061.82087906  .00000063  00000+0  11522-3 0  9997
2 19071  90.3285  19.0218 0186335 304.9292 111.9290 13.27967207833284
NOVA 2                  
1 19223U 88052A   26061.64288873  .00000102  00000+0  22064-3 0  9990
2 19223  89.9781  78.1370 0031339 150.3025 331.6254 13.22946728820044
OSCAR 25                
1 19419U 88074A   26061.78567326  .00000116  00000+0  18432-3 0  9998
2 19419  90.0407  20.5133 0096972  19.0887  44.9037 13.42640127837146
