[{"OBJECT_NAME":"OPS 7218 (TRANSIT 16)","OBJECT_ID":"1967-048A","EPOCH":"2026-03-02T19:53:52.172448","MEAN_MOTION":13.50742256,"ECCENTRICITY":0.001826,"INCLINATION":89.681,"RA_OF_ASC_NODE":351.3885,"ARG_OF_PERICENTER":242.9502,"MEAN_ANOMALY":177.9136,"EPHEMERIS_TYPE":0,"CLASSIFICATION_TYPE":"U","NORAD_CAT_ID":2807,"ELEMENT_SET_NO":999,"REV_AT_EPOCH":89357,"BSTAR":0.00018272,"MEAN_MOTION_DOT":1.28e-6,"MEAN_MOTION_DDOT":0},{"OBJECT_NAME":"OPS 4947 (TRANSIT 17)","OBJECT_ID":"1967-092A","EPOCH":"2026-03-02T19:14:58.437600","MEAN_MOTION":13.53475855,"ECCENTRICITY":0.004807,"INCLINATION":89.2554,"RA_OF_ASC_NODE":18.3348,"ARG_OF_PERICENTER":5.9572,"MEAN_ANOMALY":54.7732,"EPHEMERIS_TYPE":0,"CLASSIFICATION_TYPE":"U","NORAD_CAT_ID":2965,"ELEMENT_SET_NO":999,"REV_AT_EPOCH":88180,"BSTAR":0.00022563,"MEAN_MOTION_DOT":1.64e-6,"MEAN_MOTION_DDOT":0},{"OBJECT_NAME":"OPS 7034 (TRANSIT 18)","OBJECT_ID":"1968-012A","EPOCH":"2026-03-02T15:54:53.590464","MEAN_MOTION":13.51587481,"ECCENTRICITY":0.007227,"INCLINATION":90.0217,"RA_OF_ASC_NODE":273.8542,"ARG_OF_PERICENTER":299.8543,"MEAN_ANOMALY":130.8155,"EPHEMERIS_TYPE":0,"CLASSIFICATION_TYPE":"U","NORAD_CAT_ID":3133,"ELEMENT_SET_NO":999,"REV_AT_EPOCH":57998,"BSTAR":0.00022032,"MEAN_MOTION_DOT":1.54e-6,"MEAN_MOTION_DDOT":0},{"OBJECT_NAME":"NNSS 19 (TRANSIT 19)","OBJECT_ID":"1970-067A","EPOCH":"2026-03-02T12:31:09.767712","MEAN_MOTION":13.51336438,"ECCENTRICITY":0.01734148,"INCLINATION":90.0048,"RA_OF_ASC_NODE":234.5766,"ARG_OF_PERICENTER":62.1588,"MEAN_ANOMALY":299.7015,"EPHEMERIS_TYPE":0,"CLASSIFICATION_TYPE":"U","NORAD_CAT_ID":4507,"ELEMENT_SET_NO":999,"REV_AT_EPOCH":73299,"BSTAR":0.00019050128,"MEAN_MOTION_DOT":1.47e-6,"MEAN_MOTION_DDOT":0},{"OBJECT_NAME":"NNSS 20 (TRANSIT 20)","OBJECT_ID":"1973-081A","EPOCH":"2026-03-02T13:50:25.539072","MEAN_MOTION":13.71471886,"ECCENTRICITY":0.0153976,"INCLINATION":89.8511,"RA_OF_ASC_NODE":253.8401,"ARG_OF_PERICENTER":198.1668,"MEAN_ANOMALY":161.3958,"EPHEMERIS_TYPE":0,"CLASSIFICATION_TYPE":"U","NORAD_CAT_ID":6909,"ELEMENT_SET_NO":999,"REV_AT_EPOCH":81455,"BSTAR":0.00023102,"MEAN_MOTION_DOT":2.36e-6,"MEAN_MOTION_DDOT":0},{"OBJECT_NAME":"TRANSAT","OBJECT_ID":"1977-106A","EPOCH":"2026-03-02T14:38:20.937120","MEAN_MOTION":13.4895684,"ECCENTRICITY":0.0024335,"INCLINATION":89.6396,"RA_OF_ASC_NODE":75.7319,"ARG_OF_PERICENTER":327.0821,"MEAN_ANOMALY":147.5083,"EPHEMERIS_TYPE":0,"CLASSIFICATION_TYPE":"U","NORAD_CAT_ID":10457,"ELEMENT_SET_NO":999,"REV_AT_EPOCH":37820,"BSTAR":0.00012878,"MEAN_MOTION_DOT":9.1e-7,"MEAN_MOTION_DDOT":0},{"OBJECT_NAME":"NOVA 1","OBJECT_ID":"1981-044A","EPOCH":"2026-03-02T16:02:44.104128","MEAN_MOTION":13.23286684,"ECCENTRICITY":0.0012573,"INCLINATION":89.8427,"RA_OF_ASC_NODE":90.2223,"ARG_OF_PERICENTER":239.8521,"MEAN_ANOMALY":245.0534,"EPHEMERIS_TYPE":0,"CLASSIFICATION_TYPE":"U","NORAD_CAT_ID":12458,"ELEMENT_SET_NO":999,"REV_AT_EPOCH":16243,"BSTAR":0.00014517,"MEAN_MOTION_DOT":7.0e-7,"MEAN_MOTION_DDOT":0},{"OBJECT_NAME":"NOVA 3","OBJECT_ID":"1984-110A","EPOCH":"2026-03-02T15:11:02.292288","MEAN_MOTION":13.23055707,"ECCENTRICITY":0.0033391,"INCLINATION":90.1128,"RA_OF_ASC_NODE":81.4393,"ARG_OF_PERICENTER":108.2432,"MEAN_ANOMALY":11.5514,"EPHEMERIS_TYPE":0,"CLASSIFICATION_TYPE":"U","NORAD_CAT_ID":15362,"ELEMENT_SET_NO":999,"REV_AT_EPOCH":99755,"BSTAR":0.0002281,"MEAN_MOTION_DOT":1.05e-6,"MEAN_MOTION_DDOT":0},{"OBJECT_NAME":"OSCAR 30","OBJECT_ID":"1985-066A","EPOCH":"2026-03-02T15:52:51.716352","MEAN_MOTION":13.36093716,"ECCENTRICITY":0.0166663,"INCLINATION":90.1555,"RA_OF_ASC_NODE":101.1253,"ARG_OF_PERICENTER":217.6648,"MEAN_ANOMALY":266.6372,"EPHEMERIS_TYPE":0,"CLASSIFICATION_TYPE":"U","NORAD_CAT_ID":15935,"ELEMENT_SET_NO":999,"REV_AT_EPOCH":97520,"BSTAR":0.00014795,"MEAN_MOTION_DOT":9.0e-7,"MEAN_MOTION_DDOT":0},{"OBJECT_NAME":"OSCAR 24","OBJECT_ID":"1985-066B","EPOCH":"2026-03-02T15:40:26.911200","MEAN_MOTION":13.35951465,"ECCENTRICITY":0.0167506,"INCLINATION":90.1692,"RA_OF_ASC_NODE":93.6861,"ARG_OF_PERICENTER":224.2665,"MEAN_ANOMALY":253.0113,"EPHEMERIS_TYPE":0,"CLASSIFICATION_TYPE":"U","NORAD_CAT_ID":15936,"ELEMENT_SET_NO":999,"REV_AT_EPOCH":97710,"BSTAR":0.00017437,"MEAN_MOTION_DOT":1.04e-6,"MEAN_MOTION_DDOT":0},{"OBJECT_NAME":"POLAR BEAR","OBJECT_ID":"1986-088A","EPOCH":"2026-03-02T19:17:36.833856","MEAN_MOTION":13.75268616,"ECCENTRICITY":0.0037729,"INCLINATION":89.6249,"RA_OF_ASC_NODE":180.5892,"ARG_OF_PERICENTER":237.1763,"MEAN_ANOMALY":237.5864,"EPHEMERIS_TYPE":0,"CLASSIFICATION_TYPE":"U","NORAD_CAT_ID":17070,"ELEMENT_SET_NO":999,"REV_AT_EPOCH":97079,"BSTAR":0.00010878,"MEAN_MOTION_DOT":1.16e-6,"MEAN_MOTION_DDOT":0},{"OBJECT_NAME":"OSCAR 27","OBJECT_ID":"1987-080A","EPOCH":"2026-03-02T14:20:35.217312","MEAN_MOTION":13.44923115,"ECCENTRICITY":0.0103613,"INCLINATION":90.3647,"RA_OF_ASC_NODE":82.2223,"ARG_OF_PERICENTER":357.0336,"MEAN_ANOMALY":3.0185,"EPHEMERIS_TYPE":0,"CLASSIFICATION_TYPE":"U","NORAD_CAT_ID":18361,"ELEMENT_SET_NO":999,"REV_AT_EPOCH":88630,"BSTAR":0.00016892,"MEAN_MOTION_DOT":1.1e-6,"MEAN_MOTION_DDOT":0},{"OBJECT_NAME":"OSCAR 29","OBJECT_ID":"1987-080B","EPOCH":"2026-03-02T15:31:43.017024","MEAN_MOTION":13.44463285,"ECCENTRICITY":0.0106013,"INCLINATION":90.3657,"RA_OF_ASC_NODE":82.6894,"ARG_OF_PERICENTER":20.0617,"MEAN_ANOMALY":99.3409,"EPHEMERIS_TYPE":0,"CLASSIFICATION_TYPE":"U","NORAD_CAT_ID":18362,"ELEMENT_SET_NO":999,"REV_AT_EPOCH":88583,"BSTAR":0.00014076,"MEAN_MOTION_DOT":9.3e-7,"MEAN_MOTION_DDOT":0},{"OBJECT_NAME":"OSCAR 23","OBJECT_ID":"1988-033A","EPOCH":"2026-03-02T18:43:41.501280","MEAN_MOTION":13.27802463,"ECCENTRICITY":0.0188265,"INCLINATION":90.328,"RA_OF_ASC_NODE":18.8843,"ARG_OF_PERICENTER":318.3345,"MEAN_ANOMALY":106.7459,"EPHEMERIS_TYPE":0,"CLASSIFICATION_TYPE":"U","NORAD_CAT_ID":19070,"ELEMENT_SET_NO":999,"REV_AT_EPOCH":83315,"BSTAR":0.00017491,"MEAN_MOTION_DOT":9.3e-7,"MEAN_MOTION_DDOT":0},{"OBJECT_NAME":"OSCAR 32","OBJECT_ID":"1988-033B","EPOCH":"2026-03-02T19:42:03.950784","MEAN_MOTION":13.27967207,"ECCENTRICITY":0.0186335,"INCLINATION":90.3285,"RA_OF_ASC_NODE":19.0218,"ARG_OF_PERICENTER":304.9292,"MEAN_ANOMALY":111.929,"EPHEMERIS_TYPE":0,"CLASSIFICATION_TYPE":"U","NORAD_CAT_ID":19071,"ELEMENT_SET_NO":999,"REV_AT_EPOCH":83328,"BSTAR":0.00011522,"MEAN_MOTION_DOT":6.3e-7,"MEAN_MOTION_DDOT":0},{"OBJECT_NAME":"NOVA 2","OBJECT_ID":"1988-052A","EPOCH":"2026-03-02T15:25:45.586272","MEAN_MOTION":13.22946728,"ECCENTRICITY":0.0031339,"INCLINATION":89.9781,"RA_OF_ASC_NODE":78.137,"ARG_OF_PERICENTER":150.3025,"MEAN_ANOMALY":331.6254,"EPHEMERIS_TYPE":0,"CLASSIFICATION_TYPE":"U","NORAD_CAT_ID":19223,"ELEMENT_SET_NO":999,"REV_AT_EPOCH":82004,"BSTAR":0.00022064,"MEAN_MOTION_DOT":1.02e-6,"MEAN_MOTION_DDOT":0},{"OBJECT_NAME":"OSCAR 25","OBJECT_ID":"1988-074A","EPOCH":"2026-03-02T18:51:22.169664","MEAN_MOTION":13.42640127,"ECCENTRICITY":0.0096972,"INCLINATION":90.0407,"RA_OF_ASC_NODE":20.5133,"ARG_OF_PERICENTER":19.0887,"MEAN_ANOMALY":44.9037,"EPHEMERIS_TYPE":0,"CLASSIFICATION_TYPE":"U","NORAD_CAT_ID":19419,"ELEMENT_SET_NO":999,"REV_AT_EPOCH":83714,"BSTAR":0.00018432,"MEAN_MOTION_DOT":1.16e-6,"MEAN_MOTION_DDOT":0}]
